2 57942  53.1620 187.6792 0001100  46.9510 313.1583 15.30177543 85578
STARLINK-30456          
1 57943U 23148J   25088.59261981  .00002395  00000+0  92999-4 0  9990
2 57943  53.1604 187.4190 0001134 123.2668 236.8441 15.30181484 85585
STARLINK-30708          
1 57944U 23148K   25088.57257645  .00001478  00000+0  62046-4 0  9992
2 57944  53.1608 187.2989 0001285 102.2416 257.8729 15.30184902 85589
STARLINK-30705          
1 57945U 23148L   25088.64844285  .00001618  00000+0  66754-4 0  9999
2 57945  53.1588 187.0652 0001206  98.3463 261.7674 15.30186687 85598
STARLINK-30704          
1 57946U 23148M   25089.13528379  .00002229  00000+0  17500-3 0  9991
2 57946  53.1601 245.8672 0001071  83.5417 276.5694 15.04922917 84719
STARLINK-30706          
1 57947U 23148N   25088.65477346  .00001788  00000+0  72494-4 0  9998
2 57947  53.1595 187.0965 0001119  92.4088 267.7041 15.30184457 85593
STARLINK-30709          
1 57948U 23148P   25088.98538417  .00027745  00000+0  94085-3 0  9992
2 57948  53.1622 185.4483 0001127  93.1355 266.9775 15.30356543 85554
STARLINK-30707          
1 57949U 23148Q   25088.65160171  .00006075  00000+0  21725-3 0  9999
2 57949  53.1588 187.0762 0001187 124.6492 235.4621 15.30173424 85592
STARLINK-30701          
1 57950U 23148R   25088.97186136  .00013523  00000+0  46875-3 0  9994
2 57950  53.1582 185.5076 0001384 122.9681 237.1453 15.30138265 85562
STARLINK-30399          
1 57951U 23148S   25088.96764556  .00012230  00000+0  42500-3 0  9997
2 57951  53.1604 185.4806 0001601 110.2076 249.9097 15.30150852 85569
STARLINK-30713          
1 57952U 23148T   25088.62522305  .00001492  00000+0  62511-4 0  9998
2 57952  53.1580 186.9176 0001180  98.9913 261.1221 15.30193124 85590
STARLINK-30700          
1 57953U 23148U   25089.25107556  .00002220  00000+0  87086-4 0  9990
2 57953  53.1591 174.0965 0001059 103.0061 257.1058 15.30189008 85739
STARLINK-30703          
1 57954U 23148V   25089.22473768  .00000101  00000+0  15524-4 0  9993
2 57954  53.1614 174.1818 0001209  98.1791 261.9347 15.30191150 85730
STARLINK-30702          
1 57955U 23148W   25089.22895434 -.00000061  00000+0  10064-4 0  9992
2 57955  53.1605 174.2045 0001244  86.2622 273.8521 15.30197909 85738
STARLINK-30396          
1 57964U 23151A   25089.00746399  .00000462  00000+0  49301-4 0  9997
2 57964  43.0030  51.7727 0001370 270.6479  89.4206 15.02536091 83886
STARLINK-30524          
1 57965U 23151B   25089.17803745  .00001202  00000+0  10402-3 0  9997
2 57965  43.0052  50.4809 0000964 257.1513 102.9222 15.02537766 83851
STARLINK-30521          
1 57966U 23151C   25088.58750425  .00001296  00000+0  11097-3 0  9992
2 57966  43.0032  53.7834 0000967 270.4159  89.6572 15.02538237 83821
STARLINK-30528          
1 57967U 23151D   25088.58417574  .00000047  00000+0  18562-4 0  9996
2 57967  43.0019  53.7498 0000832 273.9480  86.1267 15.02538571 83823
STARLINK-30495          
1 57968U 23151E   25089.14596772  .00000433  00000+0  47148-4 0  9999
2 57968  43.0020  51.0819 0000950 272.8604  87.2129 15.02531927 83840
STARLINK-30484          
1 57969U 23151F   25089.17915088 -.00000921  00000+0 -53136-4 0  9996
2 57969  43.0032  50.4794 0000736 248.2164 111.8600 15.02523190 83806
STARLINK-30494          
1 57970U 23151G   25089.20908034 -.00003924  00000+0 -13322-3 0  9993
2 57970  43.0028  30.2795 0001661 262.6233  97.4430 15.27562313 84094
STARLINK-30498          
1 57971U 23151H   25089.21799380 -.00001458  00000+0 -92866-4 0  9998
2 57971  43.0037  50.7482 0001319 264.3498  95.7194 15.02543335 83797
STARLINK-30505          
1 57972U 23151J   25089.16815179 -.00005890  00000+0 -42110-3 0  9998
2 57972  43.0025  51.2350 0000970 285.3096  74.7639 15.02553787 83887
STARLINK-30502          
1 57973U 23151K   25088.89003886 -.00001367  00000+0 -86172-4 0  9994
2 57973  43.0032  52.5883 0000778 283.5785  76.4971 15.02541289 83862
STARLINK-30489          
1 57974U 23151L   25089.18136784  .00000051  00000+0  18827-4 0  9991
2 57974  43.0016  50.4842 0001223 276.0208  84.0495 15.02527773 83857
STARLINK-30503          
1 57975U 23151M   25088.63191590  .00013953  00000+0  10458-2 0  9992
2 57975  43.0026  54.0691 0001558 243.2553 116.8130 15.02541017 83825
STARLINK-30512          
1 57976U 23151N   25089.19911553  .00001377  00000+0  11698-3 0  9999
2 57976  43.0042  50.5577 0001209 270.5788  89.4916 15.02537283 83809
STARLINK-30509          
1 57977U 23151P   25089.18673951  .00000797  00000+0  74072-4 0  9997
2 57977  43.0039  64.1041 0001226 270.9000  89.1702 15.02529668 83687
STARLINK-30511          
1 57978U 23151Q   25089.18007767 -.00001482  00000+0 -94732-4 0  9993
2 57978  43.0034  64.0545 0001353 269.5839  90.4848 15.02518051 83732
STARLINK-30508          
1 57979U 23151R   25088.97731689 -.00000153  00000+0  37539-5 0  9993
2 57979  43.0063  65.1094 0001390 269.5834  90.4850 15.02530308 83723
STARLINK-30504          
1 57980U 23151S   25089.13181001 -.00002790  00000+0 -96789-4 0  9992
2 57980  43.0002  16.9869 0001049 270.7532  89.3199 15.25938182 84295
STARLINK-30510          
1 57981U 23151T   25088.97396656  .00003998  00000+0  31074-3 0  9992
2 57981  43.0045  65.0848 0000747 269.3161  90.7596 15.02545982 83665
STARLINK-30507          
1 57982U 23151U   25089.23656771  .00001634  00000+0  13598-3 0  9996
2 57982  43.0045  63.6175 0001200 274.6432  85.4273 15.02533046 83748
STARLINK-30515          
1 57983U 23151V   25088.63492420  .00001606  00000+0  13389-3 0  9996
2 57983  43.0038  66.8456 0001264 260.5135  99.5564 15.02546127 83677
STARLINK-30516          
1 57984U 23151W   25089.22992065 -.00003955  00000+0 -27804-3 0  9991
2 57984  43.0020  63.5669 0001423 279.5117  80.5564 15.02508540 83752
STARLINK-30519          
1 57985U 23151X   25089.22657861  .00000855  00000+0  78383-4 0  9997
2 57985  43.0043  63.5429 0001172 279.0806  80.9904 15.02531851 83701
STARLINK-30537          
1 57991U 23153A   25089.21166210  .00013094  00000+0  98262-3 0  9994
2 57991  43.0014 140.9185 0001245 261.3837  98.6865 15.02533147 82749
STARLINK-30534          
1 57992U 23153B   25089.15514725  .00004136  00000+0  32104-3 0  9996
2 57992  43.0018 141.3486 0001462 269.0179  91.0495 15.02542672 82950
STARLINK-30536          
1 57993U 23153C   25088.87258957  .00011117  00000+0  83669-3 0  9996
2 57993  43.0016 142.6748 0001552 260.3919  99.6748 15.02538215 83000
STARLINK-30538          
1 57994U 23153D   25088.86593216  .00003743  00000+0  29194-3 0  9995
2 57994  43.0007 142.6191 0001049 274.3819  85.6903 15.02540491 82903
STARLINK-30517          
1 57995U 23153E   25088.86260443  .00001130  00000+0  98729-4 0  9998
2 57995  43.0027 142.5947 0001262 264.1078  95.9620 15.02535273 83009
STARLINK-30543          
1 57996U 23153F   25089.25002315  .00490597  00000+0  70745-2 0  9990
2 57996  43.0001 271.9457 0012526 302.2609 143.7419 15.53451074 85691
STARLINK-30523          
1 57997U 23153G   25088.86926313  .00000637  00000+0  62208-4 0  9999
2 57997  43.0026 142.6464 0001128 254.1802 105.8916 15.02528114 83005
STARLINK-30531          
1 57998U 23153H   25089.16501969  .00002320  00000+0  18676-3 0  9990
2 57998  43.0022 140.5709 0001244 260.1996  99.8706 15.02534589 83058
STARLINK-30552          
1 57999U 23153J   25089.18836632 -.00002057  00000+0 -13735-3 0  9991
2 57999  42.9991 140.7413 0001434 283.1510  76.9172 15.02508865 83066
STARLINK-30545          
1 58000U 23153K   25089.18500264  .00001248  00000+0  10741-3 0  9997
2 58000  43.0011 140.7137 0001062 268.3755  91.6966 15.02535576 83065
STARLINK-30535          
1 58001U 23153L   25088.84928034  .00005115  00000+0  39331-3 0  9992
2 58001  43.0013 142.4930 0001282 267.6570  92.4126 15.02546026 83002
STARLINK-30540          
1 58002U 23153M   25089.15181676  .00005726  00000+0  43846-3 0  9995
2 58002  43.0011 141.3034 0001740 249.1886 110.8770 15.02545336 82943
STARLINK-30546          
1 58003U 23153N   25089.17833856  .00001675  00000+0  13905-3 0  9994
2 58003  43.0037 140.6608 0000836 306.8113  53.2652 15.02540525 83068
STARLINK-30539          
1 58004U 23153P   25088.84261714  .00001417  00000+0  11998-3 0  9990
2 58004  43.0032 142.4451 0001428 269.8657  90.2022 15.02536424 83008
STARLINK-30530          
1 58005U 23153Q   25088.83595958  .00000658  00000+0  63798-4 0  9992
2 58005  43.0028 142.3932 0001579 268.9958  91.0704 15.02534988 83007
STARLINK-30526          
1 58006U 23153R   25089.11582200  .00000405  00000+0  45025-4 0  9994
2 58006  43.0030 115.8621 0001272 265.8906  94.1791 15.02533819 83338
STARLINK-30527          
1 58007U 23153S   25089.07183913  .00004965  00000+0  16567-3 0  9991
2 58007  43.0031 344.7034 0001451 300.5971  59.4739 15.32063772 84818
STARLINK-30522          
1 58008U 23153T   25088.85928344  .00001594  00000+0  13303-3 0  9992
2 58008  43.0025 142.5619 0001414 271.0989  88.9691 15.02531644 83004
STARLINK-30486          
1 58009U 23153U   25088.83928494 -.00004047  00000+0 -28476-3 0  9992
2 58009  43.0017 142.4148 0001524 261.3558  98.7112 15.02524754 82907
STARLINK-30520          
1 58010U 23153V   25089.16177335  .00006615  00000+0  50408-3 0  9992
2 58010  42.9992 141.3777 0001460 207.4112 152.6653 15.02554145 82942
STARLINK-30497          
1 58011U 23153W   25089.15847708  .00006797  00000+0  51760-3 0  9993
2 58011  43.0020 141.3572 0001461 267.2472  92.8203 15.02546074 83044
STARLINK-30525          
1 58012U 23153X   25088.88257786  .00004263  00000+0  33040-3 0  9991
2 58012  43.0017 142.7254 0001609 258.7344 101.3318 15.02540838 83001
STARLINK-30514          
1 58028U 23156A   25088.75502975  .00000208  00000+0  17355-4 0  9997
2 58028  53.1598 242.0753 0001136  86.1244 273.9889 15.34219231 83485
STARLINK-30518          
1 58029U 23156B   25088.74570821  .00001352  00000+0  51421-4 0  9995
2 58029  53.1610 242.0244 0001042  79.2274 280.8846 15.34207985 83481
